KUIPER-00165            
1 65778U 25217S   25315.98488366  .00048086  00000+0  12941-2 0  9992
2 65778  51.8703 213.1168 0003825 219.4625 140.6084 15.37383618  7317
KUIPER-00166            
1 65779U 25217T   25316.10703594  .00051722  00000+0  13838-2 0  9998
2 65779  51.8709 212.4416 0002968 194.8815 165.2085 15.37535324  7335
KUIPER-00167            
1 65780U 25217U   25316.25003472 -.00765372  00000+0 -30253-1 0  9998
2 65780  51.8724 212.4049 0008267 241.6915 210.2571 15.27361069  5663
KUIPER-00168            
1 65781U 25217V   25316.02075981  .00067244  00000+0  17532-2 0  9995
2 65781  51.8714 212.6197 0003103 136.4251 223.6982 15.38214144  7329
KUIPER-00169            
1 65782U 25217W   25316.10866702  .00024364  00000+0  65738-3 0  9992
2 65782  51.8715 212.4512 0002532 203.5936 156.4935 15.37645661  7334
KUIPER-00170            
1 65783U 25217X   25316.13806015  .00048572  00000+0  13452-2 0  9999
2 65783  51.8653 212.6266 0005843 257.0166 103.0168 15.36479080  7336
KUIPER-00171            
1 65784U 25217Y   25316.25003472  .01183129  00000+0  14563-1 0  9991
2 65784  51.8587 210.2016 0007557 247.0962 216.1407 15.57204538  5907
KUIPER-00172            
1 65785U 25217Z   25316.09567594  .00042737  00000+0  11275-2 0  9990
2 65785  51.8717 212.3690 0003149 200.6072 159.4789 15.38051297  7336
KUIPER-00173            
1 65786U 25217AA  25315.97272876  .00075363  00000+0  19950-2 0  9992
2 65786  51.8710 213.0412 0002389 186.1282 173.9676 15.37693860  7317
KUIPER-00174            
1 65787U 25217AB  25316.02468146  .00046008  00000+0  12156-2 0  9992
2 65787  51.8730 212.6417 0003508 156.0050 204.1101 15.37973112  7325
KUIPER-00176            
1 65788U 25217AC  25316.25003472 -.00693905  00000+0 -22911-1 0  9990
2 65788  51.8736 211.7309 0000101 209.6682 223.5974 15.33361232  5785
KUIPER-00101            
1 65947U 25228A   25316.25003472 -.00418524  00000+0 -15694-1 0  9991
2 65947  51.8812 167.6395 0005343 233.7964  41.8226 15.28524118  5414
KUIPER-00113            
1 65948U 25228B   25315.85582568  .00045424  00000+0  13020-2 0  9990
2 65948  51.8802 169.3092 0005984 233.6634 126.3800 15.35435253  5675
KUIPER-00117            
1 65949U 25228C   25316.25003472  .00039108  00000+0  12008-2 0  9995
2 65949  51.8798 167.4290 0006978 241.5380 125.7816 15.33327681  5155
KUIPER-00121            
1 65950U 25228D   25315.99822929  .00039743  00000+0  11666-2 0  9997
2 65950  51.8814 168.7640 0005673 253.8596 106.1766 15.34749912  5697
KUIPER-00122            
1 65951U 25228E   25316.25003472 -.01410640  00000+0 -64523-1 0  9993
2 65951  51.8822 168.0801 0006637 271.8508 157.0594 15.23380406  4356
KUIPER-00123            
1 65952U 25228F   25316.25003472 -.00618524  00000+0 -28521-1 0  9992
2 65952  51.8839 168.0993 0006145 255.9761 123.5779 15.22150658  2652
KUIPER-00124            
1 65953U 25228G   25316.00146524  .00037326  00000+0  11048-2 0  9992
2 65953  51.8848 168.7830 0006955 267.2163  92.8027 15.34509958  5696
KUIPER-00125            
1 65954U 25228H   25315.99349067  .00053417  00000+0  15458-2 0  9995
2 65954  51.8796 168.7250 0005823 245.3468 114.6912 15.35064434  5695
KUIPER-00126            
1 65955U 25228J   25316.25003472 -.00072775  00000+0 -26380-2 0  9999
2 65955  51.8793 167.7117 0005713 277.4209 302.7347 15.28003091  5158
KUIPER-00127            
1 65956U 25228K   25316.18288723 -.00098285  00000+0 -29030-2 0  9995
2 65956  51.8823 167.7517 0003925 271.2167  88.8369 15.34712016  5725
KUIPER-00128            
1 65957U 25228L   25315.86174397  .00032376  00000+0  94865-3 0  9997
2 65957  51.8835 169.3511 0007018 246.6847 113.3401 15.34898350  5670
KUIPER-00129            
1 65958U 25228M   25315.86088263  .00055803  00000+0  16094-2 0  9991
2 65958  51.8814 169.3441 0005935 234.9650 125.0779 15.35150145  5670
KUIPER-00130            
1 65959U 25228N   25315.99548311  .00045092  00000+0  13170-2 0  9992
2 65959  51.8817 168.7372 0006055 251.8766 108.1561 15.34847388  5694
KUIPER-00134            
1 65960U 25228P   25313.26236336  .00047631  00000+0  13956-2 0  9996
2 65960  51.8772 181.9197 0004778 245.8478 114.2009 15.34730022  5276
KUIPER-00135            
1 65961U 25228Q   25315.99688332  .00051944  00000+0  15142-2 0  9997
2 65961  51.8798 168.7547 0005497 242.3965 117.6463 15.34848552  5694
KUIPER-00136            
1 65962U 25228R   25315.98950837  .00040150  00000+0  11648-2 0  9993
2 65962  51.8820 168.7057 0005822 239.6495 120.3916 15.35113239  5698
KUIPER-00137            
1 65963U 25228S   25315.99625628  .00041989  00000+0  12314-2 0  9994
2 65963  51.8806 168.7512 0005454 249.4792 110.5608 15.34755254  5696
KUIPER-00138            
1 65964U 25228T   25315.99982943  .00038181  00000+0  11263-2 0  9993
2 65964  51.8797 168.7677 0006527 262.1509  97.8736 15.34609239  5698
KUIPER-00140            
1 65965U 25228U   25316.00080152  .00045541  00000+0  13483-2 0  9992
2 65965  51.8840 168.7765 0006769 260.7158  99.3062 15.34412059  5699
KUIPER-00141            
1 65966U 25228V   25315.99240289  .00055989  00000+0  16196-2 0  9990
2 65966  51.8803 168.7189 0006053 245.6703 114.3651 15.35054746  5691
KUIPER-00146            
1 65967U 25228W   25315.99344832  .00040381  00000+0  11820-2 0  9999
2 65967  51.8818 168.7334 0006274 243.9136 116.1204 15.34827500  5695
KUIPER-00149            
1 65968U 25228X   25315.98961471  .00043186  00000+0  12486-2 0  9998
2 65968  51.8814 168.7013 0005506 240.0042 120.0398 15.35188418  5694
KUIPER-00154            
1 65969U 25228Y   25315.98846738  .00055925  00000+0  16162-2 0  9996
2 65969  51.8807 168.6954 0006147 238.2500 121.7887 15.35084656  5690
KUIPER-00157            
1 65970U 25228Z   25315.86701115  .00189424  00000+0  53647-2 0  9995
2 65970  51.8740 169.3793 0007212 252.6194 107.4004 15.35008199  5678
